{
  "norad_id": 62531,
  "name": "STARLINK-32785",
  "history": [
    {
      "epoch": "2026-03-28T18:23:11.830560Z",
      "apogee_km": 484.14701024251553,
      "perigee_km": 481.96446483270483,
      "latitude_deg": -1.8100331947600307e-05,
      "longitude_deg": 10.371739186671638,
      "height_km": 482.6718596453374,
      "semi_major_axis_km": 6861.19273753761,
      "eccentricity": 0.00015905,
      "inclination_deg": 42.9984,
      "raan_deg": 112.3529,
      "arg_perigee_deg": 278.4611,
      "mean_anomaly_deg": 81.606,
      "mean_motion_rev_day": 15.27577782
    }
  ]
}