{"fetched_at":"2026-03-29T16:36:15Z","count":15609,"tles":[{"name":"STARLINK-32785","line1":"1 62531U 25004W   26087.76610915  .00022932  00000+0  84032-3 0  9993","line2":"2 62531  42.9984 112.3529 0001590 278.4611  81.6060 15.27577782 69379","category":"Starlink"}]}